COSMOS 1892             
1 18421U 87088A   20196.18239598  .00000129  00000-0  48485-5 0  9996
2 18421  82.4994 247.0874 0014285 339.3482  20.7172 15.17171179788820
SL-14 R/B               
1 18749U 88001B   20196.15598336  .00000065  00000-0  50582-5 0  9990
2 18749  82.5152 332.6150 0018046 206.0393 326.9007 14.83221991756922
COSMOS 1933             
1 18958U 88020A   20195.74548652  .00000571  00000-0  39448-4 0  9992
2 18958  82.5301 100.2120 0013087  65.3250 294.9337 15.03738126739033
SL-3 R/B                
1 19046U 88032B   20195.76324703 -.00000625  00000-0 -41761-4 0  9998
2 19046  97.4000 215.6683 0038680 114.6566 245.8695 15.02718592741200
SL-16 R/B               
1 19120U 88039B   20196.18097120 -.00000087  00000-0 -18570-4 0  9999
2 19120  71.0144 112.0486 0024207 266.4949  93.3407 14.19208233665713
COSMOS 1953             
1 19210U 88050A   20195.55930795 -.00000078  00000-0 -73799-5 0  9991
2 19210  82.5169  24.4889 0013723  35.4113 324.8023 15.05995546746721
SL-8 R/B                
1 19257U 88053B   20196.11561874 -.00000009  00000-0  58708-5 0  9992
2 19257  74.0503 311.9597 0021502 284.2236 249.2806 14.37472466680118
COSMOS 1975             
1 19573U 88093A   20195.88587722  .00000522  00000-0  34764-4 0  9994
2 19573  82.5211 338.5736 0015517  74.6598 285.6342 15.04901034728621
SL-14 R/B               
1 19574U 88093B   20196.42735740  .00000073  00000-0  59592-5 0  9999
2 19574  82.5319 174.8242 0022058  17.2097 144.0591 14.83332389715952
SL-16 R/B               
1 19650U 88102B   20196.33271789  .00000123  00000-0  86870-4 0  9997
2 19650  70.9975 173.3869 0016515 272.7891  87.1342 14.15790633634963
INTERCOSMOS 24          
1 20261U 89080A   20196.42076760  .00000047  00000-0  73520-5 0  9999
2 20261  82.6048   2.8286 1203119  25.6875 339.9244 12.56122580406979
SL-14 R/B               
1 20262U 89080C   20196.33222188  .00000026  00000-0  47656-5 0  9995
2 20262  82.5934  56.7089 1236516 215.8117 135.3639 12.48941854401910
DELTA 2 R/B(1)          
1 20303U 89085B   20195.74034208  .00001039  00000-0  35525-4 0  9990
2 20303  35.6239 205.3307 0094023  49.7141 311.1761 15.27423924672624
DELTA 1 R/B             
1 20323U 89089B   20196.37063615  .00000013  00000-0  12277-4 0  9990
2 20323  97.0938 337.8904 0072692 145.3512 215.2453 14.48351803617293
ARIANE 40 R/B           
1 20443U 90005H   20196.43923905 -.00000010  00000-0  11546-4 0  9993
2 20443  98.5741 258.2172 0009223 261.4507  98.5635 14.38092552596259
DELTA 2 R/B(1)          
1 20453U 90008B   20195.83295448  .00000366  00000-0  23488-4 0  9995
2 20453  35.6247 100.7565 0280475 165.2974 195.6100 14.85609848615127
COSMOS 2058             
1 20465U 90010A   20196.10079800  .00000149  00000-0  10271-4 0  9999
2 20465  82.4884 247.7010 0017026 109.5435 250.7628 14.98020716653425
SL-14 R/B               
1 20466U 90010B   20196.29244008  .00000053  00000-0  37692-5 0  9995
2 20466  82.5023  41.6591 0019073 247.8404 112.0786 14.81387823643761
SL-14 R/B               
1 20511U 90018B   20195.68339475  .00000059  00000-0  46421-5 0  9995
2 20511  82.5236 348.7198 0018346  36.1858 334.2570 14.80043703616995
HST                     
1 20580U 90037B   20195.93253220  .00000330  00000-0  90357-5 0  9992
2 20580  28.4689 144.5267 0002704  22.2277  22.9948 15.09405342459979
SL-16 R/B               
1 20625U 90046B   20196.30425513 -.00000048  00000-0 -27754-6 0  9990
2 20625  70.9994 311.8396 0015302 208.4486 151.5803 14.14652152556661
COSMOS 2084             
1 20663U 90055A   20196.12650184 -.00000081  00000-0  10001-4 0  9997
2 20663  62.7956  79.1309 0028579 274.1313  85.6515 14.92095756627345
SL-6 R/B(2)             
1 20666U 90055D   20196.44256617 -.00000114  00000-0  72904-5 0  9996
2 20666  62.7870 354.4388 0048376 347.4251  12.5631 14.92346711628799
SL-8 R/B                
1 20775U 90078B   20196.38087327  .00001213  00000-0  55871-4 0  9998
2 20775  82.9258 204.4238 0574948 111.2411 255.1170 14.34412996509590
SL-8 R/B                
1 21088U 91006B   20196.47634650 -.00000001  00000-0 -16738-4 0  9990
2 21088  82.9422 265.1227 0023652  57.8225 319.5430 13.77149724480204
OKEAN-3                 
1 21397U 91039A   20195.58705198  .00000196  00000-0  16303-4 0  9997
2 21397  82.5224 151.8585 0019500  82.7138 277.6297 14.92937490556165
COSMOS 2151             
1 21422U 91042A   20196.41644557  .00000100  00000-0  72339-5 0  9991
2 21422  82.5001 257.2710 0015272 138.4751 221.7632 14.92140482575981
SL-14 R/B               
1 21423U 91042B   20196.44256748  .00000059  00000-0  47548-5 0  9993
2 21423  82.4944 351.6767 0017937 166.0865 194.0846 14.79794266568690
ERS-1                   
1 21574U 91050A   20196.07115432  .00000007  00000-0  17182-4 0  9995
2 21574  98.5988 149.4413 0032324 206.2521 153.7028 14.37748770518925
ARIANE 40 R/B           
1 21610U 91050F   20195.66629808 -.00000016  00000-0  86187-5 0  9990
2 21610  98.4639 264.6390 0003546 160.8020 314.9559 14.40908228521750
INTERCOSMOS 25          
1 21819U 91086A   20196.39386538  .00000025  00000-0  30802-5 0  9993
2 21819  82.5941 110.2100 1516445 214.5308 134.7537 12.05149607247554
SL-8 R/B                
1 21876U 92008B   20195.76911137 -.00000015  00000-0 -31220-4 0  9995
2 21876  82.9263   2.8597 0035661 138.8682 232.4481 13.75657593425493
SL-8 R/B                
1 21938U 92020B   20195.89449817 -.00000015  00000-0 -31108-4 0  9998
2 21938  82.9294 246.9297 0027954 301.1291 232.7420 13.75285128417602
COSMOS 2219             
1 22219U 92076A   20196.45979661  .00000220  00000-0  14099-3 0  9995
2 22219  71.0595  11.2947 0016860 116.3586 243.9270 14.13639281426951
SL-16 R/B               
1 22220U 92076B   20196.32666811 -.00000078  00000-0 -15066-4 0  9992
2 22220  70.9980 215.0138 0013030 351.3000  19.9738 14.16454365429812
COSMOS 2221             
1 22236U 92080A   20196.12206162  .00000112  00000-0  95153-5 0  9994
2 22236  82.5079  78.4591 0015396 230.1443 129.8421 14.87932452494282
SL-16 R/B               
1 22285U 92093B   20196.44583838 -.00000063  00000-0 -82103-5 0  9993
2 22285  71.0225  15.8885 0005774 234.4963 125.5622 14.15048434421438
COSMOS 2228             
1 22286U 92094A   20196.27209730  .00000116  00000-0  98412-5 0  9999
2 22286  82.5193  34.5813 0021009 356.4828   3.6238 14.88150429489502
SL-16 R/B               
1 22566U 93016B   20196.33241032  .00000109  00000-0  80812-4 0  9999
2 22566  71.0064 229.3289 0012025 232.6437 127.3591 14.14967731410144
COSMOS 2242             
1 22626U 93024A   20196.05071033  .00000104  00000-0  85741-5 0  9998
2 22626  82.5213  62.9290 0018888 357.7171   2.3957 14.88006371473113
SL-16 R/B               
1 22803U 93059B   20196.01905883 -.00000118  00000-0 -34812-4 0  9997
2 22803  70.9909  43.2828 0015208 119.0850 241.1799 14.16825001387322
ARIANE 40 R/B           
1 22830U 93061H   20196.42393862 -.00000035  00000-0  39128-5 0  9996
2 22830  98.7630 245.8662 0009934 239.8759 120.1439 14.31452347398937
COSMOS 2278             
1 23087U 94023A   20196.34633474 -.00000127  00000-0 -42012-4 0  9995
2 23087  71.0514 171.4447 0010783 293.8670  66.1322 14.13801098353244
SL-16 R/B               
1 23088U 94023B   20196.41221139 -.00000260  00000-0 -11043-3 0  9992
2 23088  71.0013  84.5391 0004506 226.4714 133.6035 14.14691192354399
SL-16 R/B               
1 23343U 94074B   20196.13079455 -.00000021  00000-0  43268-5 0  9993
2 23343  97.9971 248.8932 0008183  69.4759 312.7027 14.76828978382561
SL-16 R/B               
1 23405U 94077B   20195.92057457 -.00000290  00000-0 -12446-3 0  9990
2 23405  70.9834  14.8127 0001418 358.8628   1.2491 14.15219509324108
ERS-2                   
1 23560U 95021A   20195.70423816  .00000392  00000-0  20351-4 0  9990
2 23560  98.5445 352.8007 0004740  86.0130 274.1645 15.23210998346159
ARIANE 40+ R/B          
1 23561U 95021B   20196.37201377 -.00000009  00000-0  12078-4 0  9994
2 23561  98.7219 235.9748 0007233 165.2243 205.4343 14.37975008322665
SL-16 R/B               
1 23705U 95058B   20195.74118558  .00000163  00000-0  10862-3 0  9990
2 23705  71.0195 193.7976 0011671  17.6528 342.4998 14.15138325275993
SL-16 R/B               
1 24298U 96051B   20195.78817851 -.00000014  00000-0  18723-4 0  9999
2 24298  70.8418 215.0130 0017377 304.2893  55.6581 14.12502351230077
ORBVIEW 2 (SEASTAR)     
1 24883U 97037A   20196.27253102  .00000011  00000-0  20111-4 0  9992
2 24883  98.6135 309.4272 0002961  48.3051 311.8387 14.33561492212818
SL-16 R/B               
1 25400U 98043G   20196.10648494 -.00000023  00000-0  88335-5 0  9997
2 25400  98.6077 131.5445 0008782 256.4082 103.6120 14.25457715145043
SL-16 R/B               
1 25407U 98045B   20195.48109153  .00000248  00000-0  15056-3 0  9996
2 25407  71.0100 202.9097 0009846 290.6708  69.3359 14.15803601134762
ISS (ZARYA)             
1 25544U 98067A   20196.74986111  .00003038  00000-0  62159-4 0  9996
2 25544  51.6426 212.0557 0001331 110.0389 222.8725 15.49518688236282
SL-8 R/B                
1 25723U 99022C   20195.79605669  .00010601  00000-0  73734-4 0  9992
2 25723  48.4093 219.4681 0003837 106.9153 253.2221 15.74910403182132
CZ-4B R/B               
1 25732U 99025C   20195.52775557 -.00000050  00000-0 -22542-5 0  9991
2 25732  98.9425 224.4420 0038124 135.1771 346.6550 14.17678697 95514
OKEAN-O                 
1 25860U 99039A   20195.66684398  .00000006  00000-0  84833-5 0  9995
2 25860  98.2126 215.1210 0001748 105.6425 254.4977 14.76667986129477
SL-16 R/B               
1 25861U 99039B   20196.25667559 -.00000004  00000-0  70179-5 0  9999
2 25861  98.2072 198.9410 0016972  73.2914 297.3526 14.78583169131725
DELTA 2 R/B             
1 25876U 99041E   20196.40825013 -.00000181  00000-0  11392-4 0  9993
2 25876  51.7615 203.9394 0531620  62.7555 302.6505 14.04433333 72448
